ATLAS CENTAUR R/B       
1 06155U 72065B   25331.85951519  .00001169  00000+0  16352-3 0  9990
2 06155  34.9999 182.3607 0034438 234.5195 125.2289 14.77348416826190
SL-8 R/B                
1 08459U 75112B   25332.08334080  .00000303  00000+0  10837-3 0  9990
2 08459  74.0598 205.8157 0016265 318.9878  41.0052 14.38131179617265
SL-3 R/B                
1 10114U 77057B   25332.16163042  .00013568  00000+0  31531-3 0  9999
2 10114  97.5686 134.9278 0006559 294.3660  65.6902 15.42447867652660
SEASAT 1                
1 10967U 78064A   25332.08582260  .00000482  00000+0  17348-3 0  9993
2 10967 108.0092 272.2929 0001994 251.0436 109.0493 14.46035507491827
SL-14 R/B               
1 11267U 79011B   25332.09824573  .00000672  00000+0  64056-4 0  9997
2 11267  82.5247 192.9293 0017138  40.9581 319.2922 14.91743627513639
SL-8 R/B                
1 11574U 79089B   25331.85387453  .00000361  00000+0  11720-3 0  9991
2 11574  74.0686 279.5292 0014563 120.2150 240.0451 14.42267665421429
SL-14 R/B               
1 11672U 80005B   25332.17883376  .00000778  00000+0  76418-4 0  9999
2 11672  82.5160  43.5073 0016828 138.1575 222.0934 14.90764476461368
SL-8 R/B                
1 12139U 81003B   25332.19294141  .00023866  00000+0  64104-3 0  9996
2 12139  82.9305  23.5865 0281581 170.5170 190.1542 15.06344488299375
SL-3 R/B                
1 12465U 81046B   25332.19900884  .00012403  00000+0  31643-3 0  9990
2 12465  81.2336  51.3248 0019928  15.0345 345.1484 15.39169140422807
SL-3 R/B                
1 12904U 81103B   25332.11251931  .00006998  00000+0  32364-3 0  9999
2 12904  81.1590 332.4832 0011290 270.8077  89.1860 15.19966399957798
SL-3 R/B                
1 13068U 82013B   25332.10433881  .00004939  00000+0  22076-3 0  9999
2 13068  81.1741 279.7378 0023198 158.1269 202.0958 15.20885545388907
SL-3 R/B                
1 13154U 82039B   25332.12192443  .00003354  00000+0  20627-3 0  9991
2 13154  81.1749 332.9108 0030829 301.4535  58.3677 15.09394122366316
