CCSDS_OMM_VERS = 2.0
CREATION_DATE  = 
ORIGINATOR     = 

OBJECT_NAME    = ATLAS CENTAUR R/B
OBJECT_ID      = 1972-065B
CENTER_NAME    = EARTH
REF_FRAME      = TEME
TIME_SYSTEM    = UTC
MEAN_ELEMENT_THEORY = SGP/SGP4

EPOCH          = 2025-11-27T20:37:42.112416
MEAN_MOTION    = 14.77348416
ECCENTRICITY   = .00344389
INCLINATION    = 34.9999
RA_OF_ASC_NODE = 182.3607
ARG_OF_PERICENTER = 234.5195
MEAN_ANOMALY   = 125.2289

EPHEMERIS_TYPE = 0
CLASSIFICATION_TYPE = U
NORAD_CAT_ID   = 6155
ELEMENT_SET_NO = 999
REV_AT_EPOCH   = 82619
BSTAR          = .16351722E-3
MEAN_MOTION_DOT = .1169E-4
MEAN_MOTION_DDOT = 0

CCSDS_OMM_VERS = 2.0
CREATION_DATE  = 
ORIGINATOR     = 

OBJECT_NAME    = SL-8 R/B
OBJECT_ID      = 1975-112B
CENTER_NAME    = EARTH
REF_FRAME      = TEME
TIME_SYSTEM    = UTC
MEAN_ELEMENT_THEORY = SGP/SGP4

EPOCH          = 2025-11-28T02:00:00.645120
MEAN_MOTION    = 14.38131179
ECCENTRICITY   = .0016265
INCLINATION    = 74.0598
RA_OF_ASC_NODE = 205.8157
ARG_OF_PERICENTER = 318.9878
MEAN_ANOMALY   = 41.0052

EPHEMERIS_TYPE = 0
CLASSIFICATION_TYPE = U
NORAD_CAT_ID   = 8459
ELEMENT_SET_NO = 999
REV_AT_EPOCH   = 61726
BSTAR          = .10837E-3
MEAN_MOTION_DOT = .303E-5
MEAN_MOTION_DDOT = 0

CCSDS_OMM_VERS = 2.0
CREATION_DATE  = 
ORIGINATOR     = 

OBJECT_NAME    = SL-3 R/B
OBJECT_ID      = 1977-057B
CENTER_NAME    = EARTH
REF_FRAME      = TEME
TIME_SYSTEM    = UTC
MEAN_ELEMENT_THEORY = SGP/SGP4

EPOCH          = 2025-11-28T03:52:44.868288
MEAN_MOTION    = 15.42447867
ECCENTRICITY   = .0006559
INCLINATION    = 97.5686
RA_OF_ASC_NODE = 134.9278
ARG_OF_PERICENTER = 294.3660
MEAN_ANOMALY   = 65.6902

EPHEMERIS_TYPE = 0
CLASSIFICATION_TYPE = U
NORAD_CAT_ID   = 10114
ELEMENT_SET_NO = 999
REV_AT_EPOCH   = 65266
BSTAR          = .31531E-3
MEAN_MOTION_DOT = .13568E-3
MEAN_MOTION_DDOT = 0

CCSDS_OMM_VERS = 2.0
CREATION_DATE  = 
ORIGINATOR     = 

OBJECT_NAME    = SEASAT 1
OBJECT_ID      = 1978-064A
CENTER_NAME    = EARTH
REF_FRAME      = TEME
TIME_SYSTEM    = UTC
MEAN_ELEMENT_THEORY = SGP/SGP4

EPOCH          = 2025-11-28T02:03:35.072640
MEAN_MOTION    = 14.46035507
ECCENTRICITY   = .0001994
INCLINATION    = 108.0092
RA_OF_ASC_NODE = 272.2929
ARG_OF_PERICENTER = 251.0436
MEAN_ANOMALY   = 109.0493

EPHEMERIS_TYPE = 0
CLASSIFICATION_TYPE = U
NORAD_CAT_ID   = 10967
ELEMENT_SET_NO = 999
REV_AT_EPOCH   = 49182
BSTAR          = .17348E-3
MEAN_MOTION_DOT = .482E-5
MEAN_MOTION_DDOT = 0

CCSDS_OMM_VERS = 2.0
CREATION_DATE  = 
ORIGINATOR     = 

OBJECT_NAME    = SL-14 R/B
OBJECT_ID      = 1979-011B
CENTER_NAME    = EARTH
REF_FRAME      = TEME
TIME_SYSTEM    = UTC
MEAN_ELEMENT_THEORY = SGP/SGP4

EPOCH          = 2025-11-28T02:21:28.431072
MEAN_MOTION    = 14.91743627
ECCENTRICITY   = .0017138
INCLINATION    = 82.5247
RA_OF_ASC_NODE = 192.9293
ARG_OF_PERICENTER = 40.9581
MEAN_ANOMALY   = 319.2922

EPHEMERIS_TYPE = 0
CLASSIFICATION_TYPE = U
NORAD_CAT_ID   = 11267
ELEMENT_SET_NO = 999
REV_AT_EPOCH   = 51363
BSTAR          = .64056E-4
MEAN_MOTION_DOT = .672E-5
MEAN_MOTION_DDOT = 0

CCSDS_OMM_VERS = 2.0
CREATION_DATE  = 
ORIGINATOR     = 

OBJECT_NAME    = SL-8 R/B
OBJECT_ID      = 1979-089B
CENTER_NAME    = EARTH
REF_FRAME      = TEME
TIME_SYSTEM    = UTC
MEAN_ELEMENT_THEORY = SGP/SGP4

EPOCH          = 2025-11-27T20:29:34.759392
MEAN_MOTION    = 14.42267665
ECCENTRICITY   = .0014563
INCLINATION    = 74.0686
RA_OF_ASC_NODE = 279.5292
ARG_OF_PERICENTER = 120.2150
MEAN_ANOMALY   = 240.0451

EPHEMERIS_TYPE = 0
CLASSIFICATION_TYPE = U
NORAD_CAT_ID   = 11574
ELEMENT_SET_NO = 999
REV_AT_EPOCH   = 42142
BSTAR          = .1172E-3
MEAN_MOTION_DOT = .361E-5
MEAN_MOTION_DDOT = 0

CCSDS_OMM_VERS = 2.0
CREATION_DATE  = 
ORIGINATOR     = 

OBJECT_NAME    = SL-14 R/B
OBJECT_ID      = 1980-005B
CENTER_NAME    = EARTH
REF_FRAME      = TEME
TIME_SYSTEM    = UTC
MEAN_ELEMENT_THEORY = SGP/SGP4

EPOCH          = 2025-11-28T04:17:31.236864
MEAN_MOTION    = 14.90764476
ECCENTRICITY   = .0016828
INCLINATION    = 82.5160
RA_OF_ASC_NODE = 43.5073
ARG_OF_PERICENTER = 138.1575
MEAN_ANOMALY   = 222.0934

EPHEMERIS_TYPE = 0
CLASSIFICATION_TYPE = U
NORAD_CAT_ID   = 11672
ELEMENT_SET_NO = 999
REV_AT_EPOCH   = 46136
BSTAR          = .76418E-4
MEAN_MOTION_DOT = .778E-5
MEAN_MOTION_DDOT = 0

CCSDS_OMM_VERS = 2.0
CREATION_DATE  = 
ORIGINATOR     = 

OBJECT_NAME    = SL-8 R/B
OBJECT_ID      = 1981-003B
CENTER_NAME    = EARTH
REF_FRAME      = TEME
TIME_SYSTEM    = UTC
MEAN_ELEMENT_THEORY = SGP/SGP4

EPOCH          = 2025-11-28T04:37:50.137824
MEAN_MOTION    = 15.06344488
ECCENTRICITY   = .0281581
INCLINATION    = 82.9305
RA_OF_ASC_NODE = 23.5865
ARG_OF_PERICENTER = 170.5170
MEAN_ANOMALY   = 190.1542

EPHEMERIS_TYPE = 0
CLASSIFICATION_TYPE = U
NORAD_CAT_ID   = 12139
ELEMENT_SET_NO = 999
REV_AT_EPOCH   = 29937
BSTAR          = .64104E-3
MEAN_MOTION_DOT = .23866E-3
MEAN_MOTION_DDOT = 0

CCSDS_OMM_VERS = 2.0
CREATION_DATE  = 
ORIGINATOR     = 

OBJECT_NAME    = SL-3 R/B
OBJECT_ID      = 1981-046B
CENTER_NAME    = EARTH
REF_FRAME      = TEME
TIME_SYSTEM    = UTC
MEAN_ELEMENT_THEORY = SGP/SGP4

EPOCH          = 2025-11-28T04:46:34.363776
MEAN_MOTION    = 15.39169140
ECCENTRICITY   = .0019928
INCLINATION    = 81.2336
RA_OF_ASC_NODE = 51.3248
ARG_OF_PERICENTER = 15.0345
MEAN_ANOMALY   = 345.1484

EPHEMERIS_TYPE = 0
CLASSIFICATION_TYPE = U
NORAD_CAT_ID   = 12465
ELEMENT_SET_NO = 999
REV_AT_EPOCH   = 42280
BSTAR          = .31643E-3
MEAN_MOTION_DOT = .12403E-3
MEAN_MOTION_DDOT = 0

CCSDS_OMM_VERS = 2.0
CREATION_DATE  = 
ORIGINATOR     = 

OBJECT_NAME    = SL-3 R/B
OBJECT_ID      = 1981-103B
CENTER_NAME    = EARTH
REF_FRAME      = TEME
TIME_SYSTEM    = UTC
MEAN_ELEMENT_THEORY = SGP/SGP4

EPOCH          = 2025-11-28T02:42:01.668384
MEAN_MOTION    = 15.19966399
ECCENTRICITY   = .001129
INCLINATION    = 81.1590
RA_OF_ASC_NODE = 332.4832
ARG_OF_PERICENTER = 270.8077
MEAN_ANOMALY   = 89.1860

EPHEMERIS_TYPE = 0
CLASSIFICATION_TYPE = U
NORAD_CAT_ID   = 12904
ELEMENT_SET_NO = 999
REV_AT_EPOCH   = 95779
BSTAR          = .32364E-3
MEAN_MOTION_DOT = .6998E-4
MEAN_MOTION_DDOT = 0

CCSDS_OMM_VERS = 2.0
CREATION_DATE  = 
ORIGINATOR     = 

OBJECT_NAME    = SL-3 R/B
OBJECT_ID      = 1982-013B
CENTER_NAME    = EARTH
REF_FRAME      = TEME
TIME_SYSTEM    = UTC
MEAN_ELEMENT_THEORY = SGP/SGP4

EPOCH          = 2025-11-28T02:30:14.873184
MEAN_MOTION    = 15.20885545
ECCENTRICITY   = .0023198
INCLINATION    = 81.1741
RA_OF_ASC_NODE = 279.7378
ARG_OF_PERICENTER = 158.1269
MEAN_ANOMALY   = 202.0958

EPHEMERIS_TYPE = 0
CLASSIFICATION_TYPE = U
NORAD_CAT_ID   = 13068
ELEMENT_SET_NO = 999
REV_AT_EPOCH   = 38890
BSTAR          = .22076E-3
MEAN_MOTION_DOT = .4939E-4
MEAN_MOTION_DDOT = 0

CCSDS_OMM_VERS = 2.0
CREATION_DATE  = 
ORIGINATOR     = 

OBJECT_NAME    = SL-3 R/B
OBJECT_ID      = 1982-039B
CENTER_NAME    = EARTH
REF_FRAME      = TEME
TIME_SYSTEM    = UTC
MEAN_ELEMENT_THEORY = SGP/SGP4

EPOCH          = 2025-11-28T02:55:34.270752
MEAN_MOTION    = 15.09394122
ECCENTRICITY   = .0030829
INCLINATION    = 81.1749
RA_OF_ASC_NODE = 332.9108
ARG_OF_PERICENTER = 301.4535
MEAN_ANOMALY   = 58.3677

EPHEMERIS_TYPE = 0
CLASSIFICATION_TYPE = U
NORAD_CAT_ID   = 13154
ELEMENT_SET_NO = 999
REV_AT_EPOCH   = 36631
BSTAR          = .20627E-3
MEAN_MOTION_DOT = .3354E-4
MEAN_MOTION_DDOT = 0

